H1 CPF  1  DLR 2022 12 12 13  8462 technosat            
H2  1704205 6203    42829 2022 12 12 00 00 00 2022 12 19 00 00 00    60 1 1  0 0 0
H9
10 0 59929  36000.000000  0       4014781.440      -2643991.494      -5068561.551
10 0 59929  36060.000000  0       4216141.161      -2904770.254      -4751951.668
10 0 59929  36120.000000  0       4397633.140      -3155076.254      -4415324.806
10 0 59929  36180.000000  0       4558584.270      -3393677.961      -4060087.716
10 0 59929  36240.000000  0       4698416.733      -3619385.832      -3687727.036
10 0 59929  36300.000000  0       4816650.299      -3831058.279      -3299803.366
10 0 59929  36360.000000  0       4912904.207      -4027607.520      -2897944.959
10 0 59929  36420.000000  0       4986898.547      -4208005.209      -2483841.031
10 0 59929  36480.000000  0       5038455.196      -4371287.825      -2059234.829
10 0 59929  36540.000000  0       5067498.345      -4516561.903      -1625916.388
10 0 59929  36600.000000  0       5074054.466      -4643008.974      -1185714.962
10 0 59929  36660.000000  0       5058251.800      -4749890.154       -740491.263
10 0 59929  36720.000000  0       5020319.344      -4836550.422       -292129.510
10 0 59929  36780.000000  0       4960585.326      -4902422.495        157470.702
10 0 59929  36840.000000  0       4879475.259      -4947030.289        606402.591
10 0 59929  36900.000000  0       4777509.516      -4969991.968       1052760.517
10 0 59929  36960.000000  0       4655300.363      -4971022.512       1494648.327
10 0 59929  37020.000000  0       4513548.553      -4949935.827       1930187.593
10 0 59929  37080.000000  0       4353039.551      -4906646.406       2357525.789
10 0 59929  37140.000000  0       4174639.377      -4841170.491       2774844.402
10 0 59929  37200.000000  0       3979290.027      -4753626.739       3180366.894
10 0 59929  37260.000000  0       3768004.532      -4644236.376       3572366.462
10 0 59929  37320.000000  0       3541861.679      -4513322.837       3949173.560
10 0 59929  37380.000000  0       3302000.486      -4361310.898       4309183.132
10 0 59929  37440.000000  0       3049614.415      -4188725.302       4650861.568
10 0 59929  37500.000000  0       2785945.359      -3996188.893       4972753.285
10 0 59929  37560.000000  0       2512277.469      -3784420.339       5273486.935
10 0 59929  37620.000000  0       2229930.833      -3554231.373       5551781.329
10 0 59929  37680.000000  0       1940254.963      -3306523.516       5806450.896
10 0 59929  37740.000000  0       1644622.235      -3042284.379       6036410.634
10 0 59929  37800.000000  0       1344421.332      -2762583.629       6240680.622
10 0 59929  37860.000000  0       1041050.648      -2468568.573       6418390.149
10 0 59929  37920.000000  0        735911.684      -2161459.333       6568781.333
10 0 59929  37980.000000  0        430402.503      -1842543.700       6691212.217
10 0 59929  38040.000000  0        125911.341      -1513171.703       6785159.463
10 0 59929  38100.000000  0       -176189.746      -1174749.792       6850220.598
10 0 59929  38160.000000  0       -474551.098       -828734.728       6886115.653
10 0 59929  38220.000000  0       -767851.489       -476627.314       6892688.367
10 0 59929  38280.000000  0      -1054804.054       -119965.830       6869906.900
10 0 59929  38340.000000  0      -1334161.989        239680.731       6817864.021
10 0 59929  38400.000000  0      -1604724.010        600719.615       6736776.780
10 0 59929  38460.000000  0      -1865339.582        961541.395       6626985.700
10 0 59929  38520.000000  0      -2114913.917       1320527.190       6488953.461
10 0 59929  38580.000000  0      -2352412.663       1676055.992       6323263.054
10 0 59929  38640.000000  0      -2576866.275       2026512.051       6130615.481
10 0 59929  38700.000000  0      -2787374.102       2370292.326       5911826.979
10 0 59929  38760.000000  0      -2983108.133       2705813.981       5667825.712
10 0 59929  38820.000000  0      -3163316.420       3031521.798       5399647.966
10 0 59929  38880.000000  0      -3327326.133       3345895.552       5108433.863
10 0 59929  38940.000000  0      -3474546.206       3647457.304       4795422.623
10 0 59929  39000.000000  0      -3604469.588       3934778.579       4461947.353
10 0 59929  39060.000000  0      -3716675.083       4206487.368       4109429.382
10 0 59929  39120.000000  0      -3810828.738       4461274.888       3739372.176
10 0 59929  39180.000000  0      -3886684.826       4697902.164       3353354.876
10 0 59929  39240.000000  0      -3944086.376       4915206.266       2953025.385
10 0 59929  39300.000000  0      -3982965.221       5112106.175       2540093.138
10 0 59929  39360.000000  0      -4003341.581       5287608.296       2116321.604
10 0 59929  39420.000000  0      -4005323.209       5440811.574       1683520.539
10 0 59929  39480.000000  0      -3989104.144       5570912.172       1243538.025
10 0 59929  39540.000000  0      -3954963.012       5677207.711        798252.317
10 0 59929  39600.000000  0      -3903260.959       5759101.077        349563.521
10 0 59929  39660.000000  0      -3834439.093       5816103.694       -100614.924
10 0 59929  39720.000000  0      -3749015.463       5847838.158       -550364.803
10 0 59929  39780.000000  0      -3647581.734       5854040.308       -997771.596
10 0 59929  39840.000000  0      -3530799.530       5834560.808      -1440932.991
10 0 59929  39900.000000  0      -3399396.312       5789366.010      -1877967.308
10 0 59929  39960.000000  0      -3254160.953       5718538.324      -2307021.586
10 0 59929  40020.000000  0      -3095939.129       5622276.064      -2726279.587
10 0 59929  40080.000000  0      -2925628.492       5500892.670      -3133969.560
10 0 59929  40140.000000  0      -2744173.674       5354815.390      -3528371.755
10 0 59929  40200.000000  0      -2552561.078       5184583.420      -3907825.648
10 0 59929  40260.000000  0      -2351813.500       4990845.534      -4270736.804
10 0 59929  40320.000000  0      -2142984.669       4774357.184      -4615583.341
10 0 59929  40380.000000  0      -1927153.790       4535977.208      -4940921.979
10 0 59929  40440.000000  0      -1705420.032       4276664.152      -5245393.802
10 0 59929  40500.000000  0      -1478896.987       3997472.117      -5527729.637
10 0 59929  40560.000000  0      -1248707.146       3699546.192      -5786755.022
10 0 59929  40620.000000  0      -1015976.397       3384117.487      -6021394.726
10 0 59929  40680.000000  0       -781828.605       3052497.808      -6230676.801
10 0 59929  40740.000000  0       -547380.279       2706074.020      -6413736.144
10 0 59929  40800.000000  0       -313735.406       2346302.199      -6569817.595
10 0 59929  40860.000000  0        -81980.425       1974701.518      -6698278.686
10 0 59929  40920.000000  0        146820.619       1592847.853      -6798591.944
10 0 59929  40980.000000  0        371630.795       1202367.183      -6870346.763
10 0 59929  41040.000000  0        591444.848        804928.835      -6913250.797
10 0 59929  41100.000000  0        805293.537        402238.521      -6927130.989
10 0 59929  41160.000000  0       1012247.757         -3968.836      -6911934.099
10 0 59929  41220.000000  0       1211422.405       -411936.363      -6867726.764
10 0 59929  41280.000000  0       1401980.013       -819892.547      -6794695.142
10 0 59929  41340.000000  0       1583134.116      -1226058.641      -6693144.195
10 0 59929  41400.000000  0       1754152.403      -1628656.144      -6563496.556
10 0 59929  41460.000000  0       1914359.635      -2025914.324      -6406290.959
10 0 59929  41520.000000  0       2063140.240      -2416077.746      -6222180.257
10 0 59929  41580.000000  0       2199940.633      -2797413.849      -6011929.092
10 0 59929  41640.000000  0       2324271.306      -3168220.584      -5776411.124
10 0 59929  41700.000000  0       2435708.614      -3526834.021      -5516605.715
10 0 59929  41760.000000  0       2533896.207      -3871635.782      -5233594.110
10 0 59929  41820.000000  0       2618546.137      -4201060.272      -4928555.272
10 0 59929  41880.000000  0       2689439.671      -4513601.788      -4602761.349
10 0 59929  41940.000000  0       2746427.765      -4807821.451      -4257572.768
10 0 59929  42000.000000  0       2789431.229      -5082354.005      -3894432.977
10 0 59929  42060.000000  0       2818440.552      -5335914.410      -3514862.732
10 0 59929  42120.000000  0       2833515.389      -5567304.102      -3120453.959
10 0 59929  42180.000000  0       2834783.713      -5775416.894      -2712863.286
10 0 59929  42240.000000  0       2822440.660      -5959244.525      -2293805.277
10 0 59929  42300.000000  0       2796747.041      -6117881.867      -1865045.348
10 0 59929  42360.000000  0       2758027.518      -6250531.727      -1428392.361
10 0 59929  42420.000000  0       2706668.406      -6356509.085       -985690.915
10 0 59929  42480.000000  0       2643115.168      -6435244.850       -538813.463
10 0 59929  42540.000000  0       2567869.600      -6486289.033        -89652.261
10 0 59929  42600.000000  0       2481486.768      -6509313.388        359888.722
10 0 59929  42660.000000  0       2384571.685      -6504113.586        807902.018
10 0 59929  42720.000000  0       2277775.740      -6470610.752       1252485.021
10 0 59929  42780.000000  0       2161792.872      -6408852.368       1691748.359
10 0 59929  42840.000000  0       2037355.485      -6319012.494       2123824.214
10 0 59929  42900.000000  0       1905230.224      -6201391.366       2546874.409
10 0 59929  42960.000000  0       1766213.642      -6056414.498       2959098.446
10 0 59929  43020.000000  0       1621127.689      -5884631.077       3358741.372
10 0 59929  43080.000000  0       1470815.097      -5686711.816       3744101.386
10 0 59929  43140.000000  0       1316134.696      -5463446.218       4113537.223
99
